CTC2_L_00474001-01
1 10000U 24939LN  26075.70047454  .00000000  00000+0  00000-0 0  9998
2 10000  50.0000   0.0000 0000000   0.0000   0.0000 15.05490646    19
CTC2_L_00474001-02
1 10001U 22471MZ  26075.70047454  .00000000  00000+0  00000-0 0  9998
2 10001  50.0000   0.0000 0000000   0.0000 180.0000 15.05490646    19
CTC2_L_00474002-01
1 10002U 26677EC  26075.70047454  .00000000  00000+0  00000-0 0  9991
2 10002  50.0000  12.0000 0000000   0.0000  24.0000 15.05490646    10
CTC2_L_00474002-02
1 10003U 22394EO  26075.70047454  .00000000  00000+0  00000-0 0  9994
2 10003  50.0000  12.0000 0000000   0.0000 204.0000 15.05490646    11
CTC2_L_00474003-01
1 10004U 26478GO  26075.70047454  .00000000  00000+0  00000-0 0  9992
2 10004  50.0000  24.0000 0000000   0.0000  48.0000 15.05490646    11
CTC2_L_00474003-02
1 10005U 24209SF  26075.70047454  .00000000  00000+0  00000-0 0  9993
2 10005  50.0000  24.0000 0000000   0.0000 228.0000 15.05490646    12
CTC2_L_00474004-01
1 10006U 24902ES  26075.70047454  .00000000  00000+0  00000-0 0  9994
2 10006  50.0000  36.0000 0000000   0.0000  72.0000 15.05490646    13
CTC2_L_00474004-02
1 10007U 25170G   26075.70047454  .00000000  00000+0  00000-0 0  9993
2 10007  50.0000  36.0000 0000000   0.0000 252.0000 15.05490646    14
CTC2_L_00474005-01
1 10008U 26299MA  26075.70047454  .00000000  00000+0  00000-0 0  9997
2 10008  50.0000  48.0000 0000000   0.0000  96.0000 15.05490646    14
CTC2_L_00474005-02
1 10009U 23886TR  26075.70047454  .00000000  00000+0  00000-0 0  9997
2 10009  50.0000  48.0000 0000000   0.0000 276.0000 15.05490646    15
CTC2_L_00474006-01
1 10010U 24260IV  26075.70047454  .00000000  00000+0  00000-0 0  9996
2 10010  50.0000  60.0000 0000000   0.0000 120.0000 15.05490646    19
CTC2_L_00474006-02
1 10011U 24220IX  26075.70047454  .00000000  00000+0  00000-0 0  9993
2 10011  50.0000  60.0000 0000000   0.0000 300.0000 15.05490646    10
CTC2_L_00474007-01
1 10012U 23533QL  26075.70047454  .00000000  00000+0  00000-0 0  9990
2 10012  50.0000  72.0000 0000000   0.0000 144.0000 15.05490646    10
CTC2_L_00474007-02
1 10013U 25386GW  26075.70047454  .00000000  00000+0  00000-0 0  9999
2 10013  50.0000  72.0000 0000000   0.0000 324.0000 15.05490646    11
CTC2_L_00474008-01
1 10014U 26321V   26075.70047454  .00000000  00000+0  00000-0 0  9990
2 10014  50.0000  84.0000 0000000   0.0000 168.0000 15.05490646    11
CTC2_L_00474008-02
1 10015U 26023VD  26075.70047454  .00000000  00000+0  00000-0 0  9990
2 10015  50.0000  84.0000 0000000   0.0000 348.0000 15.05490646    12
CTC2_L_00474009-01
1 10016U 26799DW  26075.70047454  .00000000  00000+0  00000-0 0  9991
2 10016  50.0000  96.0000 0000000   0.0000 192.0000 15.05490646    13
CTC2_L_00474009-02
1 10017U 24839XL  26075.70047454  .00000000  00000+0  00000-0 0  9995
2 10017  50.0000  96.0000 0000000   0.0000  12.0000 15.05490646    15
CTC2_L_00474010-01
1 10018U 23305PZ  26075.70047454  .00000000  00000+0  00000-0 0  9993
2 10018  50.0000 108.0000 0000000   0.0000 216.0000 15.05490646    16
CTC2_L_00474010-02
1 10019U 25999YR  26075.70047454  .00000000  00000+0  00000-0 0  9995
2 10019  50.0000 108.0000 0000000   0.0000  36.0000 15.05490646    17
CTC2_L_00474011-01
1 10020U 26756NU  26075.70047454  .00000000  00000+0  00000-0 0  9999
2 10020  50.0000 120.0000 0000000   0.0000 240.0000 15.05490646    10
CTC2_L_00474011-02
1 10021U 26622JS  26075.70047454  .00000000  00000+0  00000-0 0  9992
2 10021  50.0000 120.0000 0000000   0.0000  60.0000 15.05490646    11
CTC2_L_00474012-01
1 10022U 22616KZ  26075.70047454  .00000000  00000+0  00000-0 0  9992
2 10022  50.0000 132.0000 0000000   0.0000 264.0000 15.05490646    11
CTC2_L_00474012-02
1 10023U 23935DQ  26075.70047454  .00000000  00000+0  00000-0 0  9998
2 10023  50.0000 132.0000 0000000   0.0000  84.0000 15.05490646    12
CTC2_L_00474013-01
1 10024U 22687DQ  26075.70047454  .00000000  00000+0  00000-0 0  9992
2 10024  50.0000 144.0000 0000000   0.0000 288.0000 15.05490646    12
CTC2_L_00474013-02
1 10025U 24462FE  26075.70047454  .00000000  00000+0  00000-0 0  9996
2 10025  50.0000 144.0000 0000000   0.0000 108.0000 15.05490646    14
CTC2_L_00474014-01
1 10026U 26749HA  26075.70047454  .00000000  00000+0  00000-0 0  9997
2 10026  50.0000 156.0000 0000000   0.0000 312.0000 15.05490646    15
CTC2_L_00474014-02
1 10027U 23231ZA  26075.70047454  .00000000  00000+0  00000-0 0  9991
2 10027  50.0000 156.0000 0000000   0.0000 132.0000 15.05490646    16
CTC2_L_00474015-01
1 10028U 25904HE  26075.70047454  .00000000  00000+0  00000-0 0  9991
2 10028  50.0000 168.0000 0000000   0.0000 336.0000 15.05490646    16
CTC2_L_00474015-02
1 10029U 22955OY  26075.70047454  .00000000  00000+0  00000-0 0  9995
2 10029  50.0000 168.0000 0000000   0.0000 156.0000 15.05490646    17
CTC2_L_00474016-01
1 10030U 25200DC  26075.70047454  .00000000  00000+0  00000-0 0  9993
2 10030  50.0000 180.0000 0000000   0.0000   0.0000 15.05490646    11
CTC2_L_00474016-02
1 10031U 24472DQ  26075.70047454  .00000000  00000+0  00000-0 0  9994
2 10031  50.0000 180.0000 0000000   0.0000 180.0000 15.05490646    11
CTC2_L_00474017-01
1 10032U 22605LN  26075.70047454  .00000000  00000+0  00000-0 0  9991
2 10032  50.0000 192.0000 0000000   0.0000  24.0000 15.05490646    12
CTC2_L_00474017-02
1 10033U 26702YZ  26075.70047454  .00000000  00000+0  00000-0 0  9994
2 10033  50.0000 192.0000 0000000   0.0000 204.0000 15.05490646    13
CTC2_L_00474018-01
1 10034U 24773ME  26075.70047454  .00000000  00000+0  00000-0 0  9991
2 10034  50.0000 204.0000 0000000   0.0000  48.0000 15.05490646    14
CTC2_L_00474018-02
1 10035U 22687JX  26075.70047454  .00000000  00000+0  00000-0 0  9994
2 10035  50.0000 204.0000 0000000   0.0000 228.0000 15.05490646    15
CTC2_L_00474019-01
1 10036U 22125KN  26075.70047454  .00000000  00000+0  00000-0 0  9992
2 10036  50.0000 216.0000 0000000   0.0000  72.0000 15.05490646    16
CTC2_L_00474019-02
1 10037U 26663DS  26075.70047454  .00000000  00000+0  00000-0 0  9994
2 10037  50.0000 216.0000 0000000   0.0000 252.0000 15.05490646    17
CTC2_L_00474020-01
1 10038U 25867OF  26075.70047454  .00000000  00000+0  00000-0 0  9990
2 10038  50.0000 228.0000 0000000   0.0000  96.0000 15.05490646    17
CTC2_L_00474020-02
1 10039U 25174D   26075.70047454  .00000000  00000+0  00000-0 0  9992
2 10039  50.0000 228.0000 0000000   0.0000 276.0000 15.05490646    18
CTC2_L_00474021-01
1 10040U 22928UQ  26075.70047454  .00000000  00000+0  00000-0 0  9998
2 10040  50.0000 240.0000 0000000   0.0000 120.0000 15.05490646    12
CTC2_L_00474021-02
1 10041U 24150QJ  26075.70047454  .00000000  00000+0  00000-0 0  9998
2 10041  50.0000 240.0000 0000000   0.0000 300.0000 15.05490646    13
CTC2_L_00474022-01
1 10042U 23043ZE  26075.70047454  .00000000  00000+0  00000-0 0  9999
2 10042  50.0000 252.0000 0000000   0.0000 144.0000 15.05490646    13
CTC2_L_00474022-02
1 10043U 22411DF  26075.70047454  .00000000  00000+0  00000-0 0  9998
2 10043  50.0000 252.0000 0000000   0.0000 324.0000 15.05490646    14
CTC2_L_00474023-01
1 10044U 26660LI  26075.70047454  .00000000  00000+0  00000-0 0  9999
2 10044  50.0000 264.0000 0000000   0.0000 168.0000 15.05490646    14
CTC2_L_00474023-02
1 10045U 23852ME  26075.70047454  .00000000  00000+0  00000-0 0  9990
2 10045  50.0000 264.0000 0000000   0.0000 348.0000 15.05490646    15
CTC2_L_00474024-01
1 10046U 25295NH  26075.70047454  .00000000  00000+0  00000-0 0  9994
2 10046  50.0000 276.0000 0000000   0.0000 192.0000 15.05490646    16
CTC2_L_00474024-02
1 10047U 23360XS  26075.70047454  .00000000  00000+0  00000-0 0  9996
2 10047  50.0000 276.0000 0000000   0.0000  12.0000 15.05490646    18
CTC2_L_00474025-01
1 10048U 25562FN  26075.70047454  .00000000  00000+0  00000-0 0  9993
2 10048  50.0000 288.0000 0000000   0.0000 216.0000 15.05490646    18
CTC2_L_00474025-02
1 10049U 25668SU  26075.70047454  .00000000  00000+0  00000-0 0  9991
2 10049  50.0000 288.0000 0000000   0.0000  36.0000 15.05490646    19
CTC2_L_00474026-01
1 10050U 24346JM  26075.70047454  .00000000  00000+0  00000-0 0  9995
2 10050  50.0000 300.0000 0000000   0.0000 240.0000 15.05490646    13
CTC2_L_00474026-02
1 10051U 25887CJ  26075.70047454  .00000000  00000+0  00000-0 0  9997
2 10051  50.0000 300.0000 0000000   0.0000  60.0000 15.05490646    14
CTC2_L_00474027-01
1 10052U 25616KV  26075.70047454  .00000000  00000+0  00000-0 0  9998
2 10052  50.0000 312.0000 0000000   0.0000 264.0000 15.05490646    14
CTC2_L_00474027-02
1 10053U 23480TU  26075.70047454  .00000000  00000+0  00000-0 0  9996
2 10053  50.0000 312.0000 0000000   0.0000  84.0000 15.05490646    15
CTC2_L_00474028-01
1 10054U 25587JV  26075.70047454  .00000000  00000+0  00000-0 0  9997
2 10054  50.0000 324.0000 0000000   0.0000 288.0000 15.05490646    15
CTC2_L_00474028-02
1 10055U 25752XL  26075.70047454  .00000000  00000+0  00000-0 0  9992
2 10055  50.0000 324.0000 0000000   0.0000 108.0000 15.05490646    17
CTC2_L_00474029-01
1 10056U 24988CH  26075.70047454  .00000000  00000+0  00000-0 0  9993
2 10056  50.0000 336.0000 0000000   0.0000 312.0000 15.05490646    18
CTC2_L_00474029-02
1 10057U 22447DQ  26075.70047454  .00000000  00000+0  00000-0 0  9992
2 10057  50.0000 336.0000 0000000   0.0000 132.0000 15.05490646    19
CTC2_L_00474030-01
1 10058U 26067EJ  26075.70047454  .00000000  00000+0  00000-0 0  9995
2 10058  50.0000 348.0000 0000000   0.0000 336.0000 15.05490646    19
CTC2_L_00474030-02
1 10059U 25968UA  26075.70047454  .00000000  00000+0  00000-0 0  9995
2 10059  50.0000 348.0000 0000000   0.0000 156.0000 15.05490646    10
